NORAD_CAT_ID,OBJECT_NAME,OBJECT_TYPE,EPOCH,MEAN_MOTION,ECCENTRICITY,INCLINATION,RA_OF_ASC_NODE,ARG_OF_PERICENTER,MEAN_ANOMALY,BSTAR,MEAN_MOTION_DOT,MEAN_MOTION_DDOT,TLE_LINE0,TLE_LINE1,TLE_LINE2,SEMIMAJOR_AXIS,PERIOD,APOGEE,PERIGEE,DECAYED
56459.0,STARLINK-6048,PAYLOAD,2023-09-13 18:53:21,14.98330173,0.0003296,69.9997,273.4871,275.7403,84.338,-3.4658e-06,-1.34e-06,0.0,0 STARLINK-6048,1 56459U 23064M   23256.78704864 -.00000134  00000-0 -34658-5 0  9997,2 56459  69.9997 273.4871 0003296 275.7403  84.3380 14.98330173 19252,6950.192,96.107,574.348,569.767,0.0
56459.0,STARLINK-6048,PAYLOAD,2023-09-14 02:54:01,14.98322058,0.0002817,70.0002,272.644,256.792,103.2924,3.4071e-05,3.13e-06,0.0,0 STARLINK-6048,1 56459U 23064M   23257.12085165  .00000313  00000-0  34071-4 0  9997,2 56459  70.0002 272.6440 0002817 256.7920 103.2924 14.98322058 19669,6950.217,96.108,574.04,570.125,0.0
56459.0,STARLINK-6048,PAYLOAD,2023-09-14 10:54:42,14.98319767,0.0003082,69.9999,271.8033,263.6692,96.4116,-2.2048e-05,-3.56e-06,0.0,0 STARLINK-6048,1 56459U 23064M   23257.45465672 -.00000356  00000-0 -22048-4 0  9998,2 56459  69.9999 271.8033 0003082 263.6692  96.4116 14.98319767 19353,6950.225,96.108,574.232,569.947,0.0
56459.0,STARLINK-6048,PAYLOAD,2023-09-14 18:55:22,14.98321704,0.0003209,70.0,270.9617,272.5946,87.4846,-5.766e-05,-7.81e-06,0.0,0 STARLINK-6048,1 56459U 23064M   23257.78845839 -.00000781  00000-0 -57660-4 0  9991,2 56459  70.0000 270.9617 0003209 272.5946  87.4846 14.98321704 19409,6950.219,96.108,574.314,569.853,0.0
56459.0,STARLINK-6048,PAYLOAD,2023-09-15 02:56:02,14.98305503,0.0003268,69.9998,270.1201,270.9425,89.136,0.00031606,3.678e-05,0.0,0 STARLINK-6048,1 56459U 23064M   23258.12225503  .00003678  00000-0  31606-3 0  9997,2 56459  69.9998 270.1201 0003268 270.9425  89.1360 14.98305503 19816,6950.269,96.109,574.405,569.862,0.0
56459.0,STARLINK-6048,PAYLOAD,2023-09-15 09:20:35,14.98326383,0.0003177,69.9998,269.4469,264.9952,95.0844,-2.2011e-05,-3.56e-06,0.0,0 STARLINK-6048,1 56459U 23064M   23258.38929438 -.00000356  00000-0 -22011-4 0  9996,2 56459  69.9998 269.4469 0003177 264.9952  95.0844 14.98326383 19856,6950.204,96.107,574.277,569.861,0.0
56459.0,STARLINK-6048,PAYLOAD,2023-09-15 10:56:43,14.9832664,0.0003221,69.9997,269.2788,264.8643,95.2149,-1.9572e-05,-3.27e-06,0.0,0 STARLINK-6048,1 56459U 23064M   23258.45605399 -.00000327  00000-0 -19572-4 0  9997,2 56459  69.9997 269.2788 0003221 264.8643  95.2149 14.98326640 19501,6950.203,96.107,574.307,569.83,0.0
56459.0,STARLINK-6048,PAYLOAD,2023-09-16 09:22:35,14.98326559,0.0003412,70.0,266.9221,271.2161,88.8607,9.9565e-05,1.095e-05,0.0,0 STARLINK-6048,1 56459U 23064M   23259.39069253  .00001095  00000-0  99565-4 0  9995,2 56459  70.0000 266.9221 0003412 271.2161  88.8607 14.98326559 20007,6950.204,96.107,574.44,569.697,0.0
56459.0,STARLINK-6048,PAYLOAD,2023-09-16 10:58:43,14.9833476,0.000305,70.0,266.754,266.2268,93.8542,-3.1195e-05,-4.65e-06,0.0,0 STARLINK-6048,1 56459U 23064M   23259.45745071 -.00000465  00000-0 -31195-4 0  9998,2 56459  70.0000 266.7540 0003050 266.2268  93.8542 14.98334760 19655,6950.178,96.107,574.163,569.923,0.0
56459.0,STARLINK-6048,PAYLOAD,2023-09-17 03:00:04,14.98340481,0.0003429,69.9998,265.0706,270.7524,89.3242,-5.6891e-05,-7.72e-06,0.0,0 STARLINK-6048,1 56459U 23064M   23260.12504809 -.00000772  00000-0 -56891-4 0  9997,2 56459  69.9998 265.0706 0003429 270.7524  89.3242 14.98340481 20116,6950.16,96.106,574.409,569.642,0.0
56459.0,STARLINK-6048,PAYLOAD,2023-09-17 09:24:36,14.9833423,0.0003369,70.0002,264.3983,268.1955,91.8819,9.2312e-05,1.009e-05,0.0,0 STARLINK-6048,1 56459U 23064M   23260.39208657  .00001009  00000-0  92312-4 0  9998,2 56459  70.0002 264.3983 0003369 268.1955  91.8819 14.98334230 19791,6950.18,96.107,574.386,569.703,0.0
56459.0,STARLINK-6048,PAYLOAD,2023-09-17 17:25:16,14.98331392,0.0003176,70.0006,263.5564,274.2183,85.8613,6.2524e-05,6.53e-06,0.0,0 STARLINK-6048,1 56459U 23064M   23260.72588966  .00000653  00000-0  62524-4 0  9995,2 56459  70.0006 263.5564 0003176 274.2183  85.8613 14.98331392 20207,6950.189,96.107,574.261,569.846,0.0
56459.0,STARLINK-6048,PAYLOAD,2023-09-18 09:26:37,14.98331458,0.0003429,70.0003,261.8731,270.2856,89.791,-7.9283e-06,-1.88e-06,0.0,0 STARLINK-6048,1 56459U 23064M   23261.39348907 -.00000188  00000-0 -79283-5 0  9994,2 56459  70.0003 261.8731 0003429 270.2856  89.7910 14.98331458 19940,6950.188,96.107,574.437,569.67,0.0
56459.0,STARLINK-6048,PAYLOAD,2023-09-18 17:27:17,14.98332993,0.0003431,70.0003,261.0315,270.4245,89.652,-6.9174e-06,-1.76e-06,0.0,0 STARLINK-6048,1 56459U 23064M   23261.72728738 -.00000176  00000-0 -69174-5 0  9990,2 56459  70.0003 261.0315 0003431 270.4245  89.6520 14.98332993 20355,6950.184,96.107,574.433,569.664,0.0
56459.0,STARLINK-6048,PAYLOAD,2023-09-19 17:29:18,14.98331459,0.0003336,70.0005,258.507,270.8355,89.2422,-3.6015e-05,-5.23e-06,0.0,0 STARLINK-6048,1 56459U 23064M   23262.72868555 -.00000523  00000-0 -36015-4 0  9996,2 56459  70.0005 258.5070 0003336 270.8355  89.2422 14.98331459 20506,6950.188,96.107,574.372,569.735,0.0
56459.0,STARLINK-6048,PAYLOAD,2023-09-20 09:30:39,14.98326755,0.000331,70.0005,256.8236,270.1543,89.9236,-5.9833e-06,-1.64e-06,0.0,0 STARLINK-6048,1 56459U 23064M   23263.39628809 -.00000164  00000-0 -59833-5 0  9991,2 56459  70.0005 256.8236 0003310 270.1543  89.9236 14.98326755 20249,6950.203,96.107,574.368,569.767,0.0
56459.0,STARLINK-6048,PAYLOAD,2023-09-20 17:31:19,14.98328061,0.0003298,70.0006,255.9819,270.1284,89.9497,-2.3575e-05,-3.74e-06,0.0,0 STARLINK-6048,1 56459U 23064M   23263.73008809 -.00000374  00000-0 -23575-4 0  9997,2 56459  70.0006 255.9819 0003298 270.1284  89.9497 14.98328061 20650,6950.199,96.107,574.356,569.772,0.0
56459.0,STARLINK-6048,PAYLOAD,2023-09-21 09:32:40,14.98331895,0.0003237,70.0002,254.2983,266.5049,93.5739,-2.4809e-05,-3.89e-06,0.0,0 STARLINK-6048,1 56459U 23064M   23264.39768538 -.00000389  00000-0 -24809-4 0  9999,2 56459  70.0002 254.2983 0003237 266.5049  93.5739 14.98331895 20391,6950.187,96.107,574.302,569.802,0.0
56459.0,STARLINK-6048,PAYLOAD,2023-09-22 04:46:16,14.98332975,0.0002844,70.0009,252.2787,270.4745,89.6088,-6.9644e-05,-9.24e-06,0.0,0 STARLINK-6048,1 56459U 23064M   23265.19880701 -.00000924  00000-0 -69644-4 0  9996,2 56459  70.0009 252.2787 0002844 270.4745  89.6088 14.98332975 20874,6950.184,96.107,574.025,570.072,0.0
56459.0,STARLINK-6048,PAYLOAD,2023-09-22 09:34:40,14.98357888,0.0002605,70.0004,251.7739,254.9176,105.1695,-0.00042087,-5.115e-05,0.0,0 STARLINK-6048,1 56459U 23064M   23265.39907794 -.00005115  00000-0 -42087-3 0  9998,2 56459  70.0004 251.7739 0002605 254.9176 105.1695 14.98357888 20902,6950.107,96.105,573.782,570.161,0.0
56459.0,STARLINK-6048,PAYLOAD,2023-09-22 15:59:13,14.98330829,0.0003333,70.0005,251.1002,266.9439,93.1339,1.0664e-05,3.4e-07,0.0,0 STARLINK-6048,1 56459U 23064M   23265.66612487  .00000034  00000-0  10664-4 0  9990,2 56459  70.0005 251.1002 0003333 266.9439  93.1339 14.98330829 20945,6950.19,96.107,574.372,569.739,0.0
56459.0,STARLINK-6048,PAYLOAD,2023-09-23 09:36:41,14.98332971,0.0003204,70.0006,249.2491,263.9337,96.1457,6.3518e-05,6.65e-06,0.0,0 STARLINK-6048,1 56459U 23064M   23266.40048173  .00000665  00000-0  63518-4 0  9994,2 56459  70.0006 249.2491 0003204 263.9337  96.1457 14.98332971 20693,6950.184,96.107,574.276,569.822,0.0
56459.0,STARLINK-6048,PAYLOAD,2023-09-23 16:01:13,14.98334988,0.0003304,70.0006,248.5756,268.1348,91.9432,-5.7321e-05,-7.77e-06,0.0,0 STARLINK-6048,1 56459U 23064M   23266.66752298 -.00000777  00000-0 -57321-4 0  9993,2 56459  70.0006 248.5756 0003304 268.1348  91.9432 14.98334988 21090,6950.177,96.107,574.339,569.746,0.0
56459.0,STARLINK-6048,PAYLOAD,2023-09-24 09:38:42,14.9832946,0.0003169,70.0008,246.7246,265.2289,94.8508,3.09e-05,2.76e-06,0.0,0 STARLINK-6048,1 56459U 23064M   23267.40188448  .00000276  00000-0  30900-4 0  9992,2 56459  70.0008 246.7246 0003169 265.2289  94.8508 14.98329460 20844,6950.195,96.107,574.262,569.857,0.0
56459.0,STARLINK-6048,PAYLOAD,2023-09-25 03:16:11,14.98315133,0.0003179,70.0012,244.8736,263.4808,96.5989,0.00024224,2.797e-05,0.0,0 STARLINK-6048,1 56459U 23064M   23268.13624879  .00002797  00000-0  24224-3 0  9997,2 56459  70.0012 244.8736 0003179 263.4808  96.5989 14.98315133 21317,6950.239,96.108,574.313,569.894,0.0
56459.0,STARLINK-6048,PAYLOAD,2023-09-25 08:04:35,14.98333192,0.0002986,70.0013,244.3689,264.0421,96.0398,3.1496e-05,2.83e-06,0.0,0 STARLINK-6048,1 56459U 23064M   23268.33652160  .00000283  00000-0  31496-4 0  9991,2 56459  70.0013 244.3689 0002986 264.0421  96.0398 14.98333192 21340,6950.183,96.107,574.123,569.973,0.0
56459.0,STARLINK-6048,PAYLOAD,2023-09-25 16:05:15,14.98333781,0.0003121,70.0011,243.5254,269.0806,90.9996,1.7054e-06,-7.3e-07,0.0,0 STARLINK-6048,1 56459U 23064M   23268.67032122 -.00000073  00000-0  17054-5 0  9991,2 56459  70.0011 243.5254 0003121 269.0806  90.9996 14.98333781 21038,6950.181,96.107,574.215,569.877,0.0
56459.0,STARLINK-6048,PAYLOAD,2023-09-26 08:06:36,14.98323184,0.0003019,70.001,241.842,267.9994,92.0819,0.00028441,3.302e-05,0.0,0 STARLINK-6048,1 56459U 23064M   23269.33791993  .00003302  00000-0  28441-3 0  9990,2 56459  70.0010 241.8420 0003019 267.9994  92.0819 14.98323184 21497,6950.214,96.107,574.177,569.981,0.0
56459.0,STARLINK-6048,PAYLOAD,2023-09-27 08:08:37,14.98332776,0.0002969,70.0008,239.3185,268.6311,91.4508,-2.1068e-05,-3.44e-06,0.0,0 STARLINK-6048,1 56459U 23064M   23270.33932170 -.00000344  00000-0 -21068-4 0  9990,2 56459  70.0008 239.3185 0002969 268.6311  91.4508 14.98332776 21640,6950.184,96.107,574.113,569.986,0.0
56459.0,STARLINK-6048,PAYLOAD,2023-09-28 01:46:06,14.98323973,0.0002883,70.0015,237.4685,269.6067,90.4762,-4.6279e-05,-6.45e-06,0.0,0 STARLINK-6048,1 56459U 23064M   23271.07368868 -.00000645  00000-0 -46279-4 0  9994,2 56459  70.0015 237.4685 0002883 269.6067  90.4762 14.98323973 21758,6950.212,96.107,574.08,570.073,0.0
